{"type": "FeatureCollection", "features": [ {"type": "Feature", "properties": {"norad_id": 66663, "name": "KSLV-II R/B", "group": "last-30-days", "lat": 67.51404998913203, "lon": -109.63869794763929, "alt_km": 571.1234847539408, "timestamp": "2025-12-08T03:50:05.785191+00:00", "meta": {"OBJECT_NAME": "KSLV-II R/B", "OBJECT_ID": "2025-274P", "EPOCH": "2025-12-06T19:27:04.446432", "MEAN_MOTION": 14.97226496, "ECCENTRICITY": 0.00484111, "INCLINATION": 97.7412, "RA_OF_ASC_NODE": 268.2109, "ARG_OF_PERICENTER": 339.2416, "MEAN_ANOMALY": 20.6839, "EPHEMERIS_TYPE": 0, "CLASSIFICATION_TYPE": "U", "NORAD_CAT_ID": 66663, "ELEMENT_SET_NO": 999, "REV_AT_EPOCH": 152, "BSTAR": 0.00053388811, "MEAN_MOTION_DOT": 6.269e-05, "MEAN_MOTION_DDOT": 0}, "tle": {"line1": "1 66663U 25274P   25340.81046813  .00006269  00000+0  53389-3 0  9995", "line2": "2 66663  97.7412 268.2109 0048411 339.2416  20.6839 14.97226496  1529"}}, "geometry": {"type": "Point", "coordinates": [-109.63869794763929, 67.51404998913203]}}, {"type": "Feature", "properties": {"norad_id": 66664, "name": "SOYUZ-MS 28", "group": "last-30-days", "lat": 18.941619114923526, "lon": -179.0688025617851, "alt_km": 418.72927820847053, "timestamp": "2025-12-08T03:50:05.785201+00:00", "meta": {"OBJECT_NAME": "SOYUZ-MS 28", "OBJECT_ID": "2025-275A", "EPOCH": "2025-12-07T04:30:36.916128", "MEAN_MOTION": 15.49384117, "ECCENTRICITY": 0.00034959, "INCLINATION": 51.6302, "RA_OF_ASC_NODE": 169.9669, "ARG_OF_PERICENTER": 214.2568, "MEAN_ANOMALY": 145.8196, "EPHEMERIS_TYPE": 0, "CLASSIFICATION_TYPE": "U", "NORAD_CAT_ID": 66664, "ELEMENT_SET_NO": 999, "REV_AT_EPOCH": 128, "BSTAR": 0.00024795554, "MEAN_MOTION_DOT": 0.00013419, "MEAN_MOTION_DDOT": 0}, "tle": {"line1": "1 66664U 25275A   25341.18792727  .00013419  00000+0  24796-3 0  9995", "line2": "2 66664  51.6302 169.9669 0003495 214.2568 145.8196 15.49384117  1280"}}, "geometry": {"type": "Point", "coordinates": [-179.0688025617851, 18.941619114923526]}}, {"type": "Feature", "properties": {"norad_id": 66820, "name": "KOMPSAT-7", "group": "last-30-days", "lat": 47.74448448358496, "lon": 116.6146789836919, "alt_km": 569.584882086092, "timestamp": "2025-12-08T03:50:05.785214+00:00", "meta": {"OBJECT_NAME": "KOMPSAT-7", "OBJECT_ID": "2025-279A", "EPOCH": "2025-12-07T04:48:36.659520", "MEAN_MOTION": 14.9835792, "ECCENTRICITY": 0.00094556, "INCLINATION": 97.6394, "RA_OF_ASC_NODE": 287.1796, "ARG_OF_PERICENTER": 241.2978, "MEAN_ANOMALY": 118.7294, "EPHEMERIS_TYPE": 0, "CLASSIFICATION_TYPE": "U", "NORAD_CAT_ID": 66820, "ELEMENT_SET_NO": 999, "REV_AT_EPOCH": 82, "BSTAR": 0.00037158486, "MEAN_MOTION_DOT": 4.374e-05, "MEAN_MOTION_DDOT": 0}, "tle": {"line1": "1 66820U 25279A   25341.20042430  .00004374  00000+0  37158-3 0  9991", "line2": "2 66820  97.6394 287.1796 0009455 241.2978 118.7294 14.98357920   828"}}, "geometry": {"type": "Point", "coordinates": [116.6146789836919, 47.74448448358496]}}, {"type": "Feature", "properties": {"norad_id": 66877, "name": "ZQ-3 R/B", "group": "last-30-days", "lat": 54.73312303806567, "lon": -171.95351530887285, "alt_km": 874.3532634116063, "timestamp": "2025-12-08T03:50:05.785225+00:00", "meta": {"OBJECT_NAME": "ZQ-3 R/B", "OBJECT_ID": "2025-282A", "EPOCH": "2025-12-07T05:43:54.391872", "MEAN_MOTION": 14.4535451, "ECCENTRICITY": 0.0837907, "INCLINATION": 56.9535, "RA_OF_ASC_NODE": 78.5144, "ARG_OF_PERICENTER": 210.5363, "MEAN_ANOMALY": 144.4233, "EPHEMERIS_TYPE": 0, "CLASSIFICATION_TYPE": "U", "NORAD_CAT_ID": 66877, "ELEMENT_SET_NO": 999, "REV_AT_EPOCH": 59, "BSTAR": 0.00025793063, "MEAN_MOTION_DOT": 0.01186349, "MEAN_MOTION_DDOT": 7.2576e-06}, "tle": {"line1": "1 66877U 25282A   25341.23882398  .01186349  72576-5  25793-3 0  9994", "line2": "2 66877  56.9535  78.5144 0837907 210.5363 144.4233 14.45354510   599"}}, "geometry": {"type": "Point", "coordinates": [-171.95351530887285, 54.73312303806567]}}, {"type": "Feature", "properties": {"norad_id": 66906, "name": "1998-067XS", "group": "last-30-days", "lat": 29.500859728725192, "lon": -168.24329898376823, "alt_km": 414.5652227381115, "timestamp": "2025-12-08T03:50:05.785237+00:00", "meta": {"OBJECT_NAME": "1998-067XS", "OBJECT_ID": "1998-067XS", "EPOCH": "2025-12-06T23:49:06.838464", "MEAN_MOTION": 15.5014949, "ECCENTRICITY": 0.00041336, "INCLINATION": 51.6299, "RA_OF_ASC_NODE": 170.9119, "ARG_OF_PERICENTER": 177.8938, "MEAN_ANOMALY": 182.2069, "EPHEMERIS_TYPE": 0, "CLASSIFICATION_TYPE": "U", "NORAD_CAT_ID": 66906, "ELEMENT_SET_NO": 999, "REV_AT_EPOCH": 72, "BSTAR": 0.00062682756, "MEAN_MOTION_DOT": 0.00035676, "MEAN_MOTION_DDOT": 0}, "tle": {"line1": "1 66906U 98067XS  25340.99244026  .00035676  00000+0  62683-3 0  9991", "line2": "2 66906  51.6299 170.9119 0004133 177.8938 182.2069 15.50149490   728"}}, "geometry": {"type": "Point", "coordinates": [-168.24329898376823, 29.500859728725192]}}, {"type": "Feature", "properties": {"norad_id": 66907, "name": "1998-067XT", "group": "last-30-days", "lat": 32.58525299820686, "lon": -164.45942345559737, "alt_km": 413.64018775841305, "timestamp": "2025-12-08T03:50:05.785248+00:00", "meta": {"OBJECT_NAME": "1998-067XT", "OBJECT_ID": "1998-067XT", "EPOCH": "2025-12-07T05:59:38.363712", "MEAN_MOTION": 15.50548845, "ECCENTRICITY": 0.00050774, "INCLINATION": 51.6298, "RA_OF_ASC_NODE": 169.6308, "ARG_OF_PERICENTER": 196.245, "MEAN_ANOMALY": 163.8377, "EPHEMERIS_TYPE": 0, "CLASSIFICATION_TYPE": "U", "NORAD_CAT_ID": 66907, "ELEMENT_SET_NO": 999, "REV_AT_EPOCH": 76, "BSTAR": 0.0013100071, "MEAN_MOTION_DOT": 0.00076543, "MEAN_MOTION_DDOT": 0}, "tle": {"line1": "1 66907U 98067XT  25341.24974958  .00076543  00000+0  13100-2 0  9992", "line2": "2 66907  51.6298 169.6308 0005077 196.2450 163.8377 15.50548845   763"}}, "geometry": {"type": "Point", "coordinates": [-164.45942345559737, 32.58525299820686]}}, {"type": "Feature", "properties": {"norad_id": 66908, "name": "1998-067XU", "group": "last-30-days", "lat": 33.209635213572135, "lon": -163.64381954438258, "alt_km": 413.5267555557457, "timestamp": "2025-12-08T03:50:05.785257+00:00", "meta": {"OBJECT_NAME": "1998-067XU", "OBJECT_ID": "1998-067XU", "EPOCH": "2025-12-07T05:59:26.026656", "MEAN_MOTION": 15.50595365, "ECCENTRICITY": 0.00052733, "INCLINATION": 51.6295, "RA_OF_ASC_NODE": 169.6298, "ARG_OF_PERICENTER": 195.7563, "MEAN_ANOMALY": 164.3263, "EPHEMERIS_TYPE": 0, "CLASSIFICATION_TYPE": "U", "NORAD_CAT_ID": 66908, "ELEMENT_SET_NO": 999, "REV_AT_EPOCH": 76, "BSTAR": 0.0011866563, "MEAN_MOTION_DOT": 0.00069346, "MEAN_MOTION_DDOT": 0}, "tle": {"line1": "1 66908U 98067XU  25341.24960679  .00069346  00000+0  11867-2 0  9999", "line2": "2 66908  51.6295 169.6298 0005273 195.7563 164.3263 15.50595365   765"}}, "geometry": {"type": "Point", "coordinates": [-163.64381954438258, 33.209635213572135]}}, {"type": "Feature", "properties": {"norad_id": 66909, "name": "SILVERSAT", "group": "last-30-days", "lat": 33.529807895401774, "lon": -163.2199175949667, "alt_km": 413.2377862161775, "timestamp": "2025-12-08T03:50:05.785267+00:00", "meta": {"OBJECT_NAME": "SILVERSAT", "OBJECT_ID": "1998-067XV", "EPOCH": "2025-12-06T23:48:09.042912", "MEAN_MOTION": 15.50609226, "ECCENTRICITY": 0.00052543, "INCLINATION": 51.6296, "RA_OF_ASC_NODE": 170.9073, "ARG_OF_PERICENTER": 195.3758, "MEAN_ANOMALY": 164.7072, "EPHEMERIS_TYPE": 0, "CLASSIFICATION_TYPE": "U", "NORAD_CAT_ID": 66909, "ELEMENT_SET_NO": 999, "REV_AT_EPOCH": 72, "BSTAR": 0.0013867176, "MEAN_MOTION_DOT": 0.00081279, "MEAN_MOTION_DDOT": 0}, "tle": {"line1": "1 66909U 98067XV  25340.99177133  .00081279  00000+0  13867-2 0  9997", "line2": "2 66909  51.6296 170.9073 0005254 195.3758 164.7072 15.50609226   724"}}, "geometry": {"type": "Point", "coordinates": [-163.2199175949667, 33.529807895401774]}}, {"type": "Feature", "properties": {"norad_id": 66910, "name": "1998-067XW", "group": "last-30-days", "lat": 37.08871280243792, "lon": -158.10230418876782, "alt_km": 411.7095120188296, "timestamp": "2025-12-08T03:50:05.785279+00:00", "meta": {"OBJECT_NAME": "1998-067XW", "OBJECT_ID": "1998-067XW", "EPOCH": "2025-12-07T05:58:08.485248", "MEAN_MOTION": 15.50882023, "ECCENTRICITY": 0.0006057, "INCLINATION": 51.6294, "RA_OF_ASC_NODE": 169.6237, "ARG_OF_PERICENTER": 181.9065, "MEAN_ANOMALY": 178.1903, "EPHEMERIS_TYPE": 0, "CLASSIFICATION_TYPE": "U", "NORAD_CAT_ID": 66910, "ELEMENT_SET_NO": 999, "REV_AT_EPOCH": 76, "BSTAR": 0.0012693792, "MEAN_MOTION_DOT": 0.00075043, "MEAN_MOTION_DDOT": 0}, "tle": {"line1": "1 66910U 98067XW  25341.24870932  .00075043  00000+0  12694-2 0  9994", "line2": "2 66910  51.6294 169.6237 0006057 181.9065 178.1903 15.50882023   769"}}, "geometry": {"type": "Point", "coordinates": [-158.10230418876782, 37.08871280243792]}}, {"type": "Feature", "properties": {"norad_id": 66911, "name": "1998-067XX", "group": "last-30-days", "lat": 37.72840000212016, "lon": -157.09461943461966, "alt_km": 411.2117780826957, "timestamp": "2025-12-08T03:50:05.785290+00:00", "meta": {"OBJECT_NAME": "1998-067XX", "OBJECT_ID": "1998-067XX", "EPOCH": "2025-12-07T05:57:57.962592", "MEAN_MOTION": 15.50976339, "ECCENTRICITY": 0.000596, "INCLINATION": 51.6294, "RA_OF_ASC_NODE": 169.6228, "ARG_OF_PERICENTER": 182.6647, "MEAN_ANOMALY": 177.4311, "EPHEMERIS_TYPE": 0, "CLASSIFICATION_TYPE": "U", "NORAD_CAT_ID": 66911, "ELEMENT_SET_NO": 999, "REV_AT_EPOCH": 75, "BSTAR": 0.0014605419, "MEAN_MOTION_DOT": 0.00086834, "MEAN_MOTION_DDOT": 0}, "tle": {"line1": "1 66911U 98067XX  25341.24858753  .00086834  00000+0  14605-2 0  9996", "line2": "2 66911  51.6294 169.6228 0005960 182.6647 177.4311 15.50976339   754"}}, "geometry": {"type": "Point", "coordinates": [-157.09461943461966, 37.72840000212016]}}]}